CCSDS_OMM_VERS = 2.0
CREATION_DATE  = 
ORIGINATOR     = 

OBJECT_NAME    = STARLINK-35664
OBJECT_ID      = 2025-244T
CENTER_NAME    = EARTH
REF_FRAME      = TEME
TIME_SYSTEM    = UTC
MEAN_ELEMENT_THEORY = SGP/SGP4

EPOCH          = 2025-11-25T00:00:04.000320
MEAN_MOTION    = 15.39563026
ECCENTRICITY   = .00015382
INCLINATION    = 53.1592
RA_OF_ASC_NODE = 359.3530
ARG_OF_PERICENTER = 73.4926
MEAN_ANOMALY   = 24.1833

EPHEMERIS_TYPE = 0
CLASSIFICATION_TYPE = U
NORAD_CAT_ID   = 66223
ELEMENT_SET_NO = 999
REV_AT_EPOCH   = 546
BSTAR          = .21154807E-2
MEAN_MOTION_DOT = .85007E-3
MEAN_MOTION_DDOT = 0

CCSDS_OMM_VERS = 2.0
CREATION_DATE  = 
ORIGINATOR     = 

OBJECT_NAME    = STARLINK-35733
OBJECT_ID      = 2025-244U
CENTER_NAME    = EARTH
REF_FRAME      = TEME
TIME_SYSTEM    = UTC
MEAN_ELEMENT_THEORY = SGP/SGP4

EPOCH          = 2025-11-24T14:05:17.545632
MEAN_MOTION    = 15.46494543
ECCENTRICITY   = .00033315
INCLINATION    = 53.1608
RA_OF_ASC_NODE = 1.2297
ARG_OF_PERICENTER = 159.5917
MEAN_ANOMALY   = 200.5225

EPHEMERIS_TYPE = 0
CLASSIFICATION_TYPE = U
NORAD_CAT_ID   = 66224
ELEMENT_SET_NO = 999
REV_AT_EPOCH   = 552
BSTAR          = .15082774E-2
MEAN_MOTION_DOT = .76376E-3
MEAN_MOTION_DDOT = 0

CCSDS_OMM_VERS = 2.0
CREATION_DATE  = 
ORIGINATOR     = 

OBJECT_NAME    = STARLINK-35734
OBJECT_ID      = 2025-244V
CENTER_NAME    = EARTH
REF_FRAME      = TEME
TIME_SYSTEM    = UTC
MEAN_ELEMENT_THEORY = SGP/SGP4

EPOCH          = 2025-11-25T00:00:04.000320
MEAN_MOTION    = 15.41793767
ECCENTRICITY   = .00014209
INCLINATION    = 53.1593
RA_OF_ASC_NODE = 359.3040
ARG_OF_PERICENTER = 88.9340
MEAN_ANOMALY   = 32.6979

EPHEMERIS_TYPE = 0
CLASSIFICATION_TYPE = U
NORAD_CAT_ID   = 66225
ELEMENT_SET_NO = 999
REV_AT_EPOCH   = 535
BSTAR          = -.5641065E-1
MEAN_MOTION_DOT = -.2142272E-1
MEAN_MOTION_DDOT = 0

CCSDS_OMM_VERS = 2.0
CREATION_DATE  = 
ORIGINATOR     = 

OBJECT_NAME    = STARLINK-34466
OBJECT_ID      = 2025-244W
CENTER_NAME    = EARTH
REF_FRAME      = TEME
TIME_SYSTEM    = UTC
MEAN_ELEMENT_THEORY = SGP/SGP4

EPOCH          = 2025-11-25T00:00:04.000320
MEAN_MOTION    = 15.44539580
ECCENTRICITY   = .00012515
INCLINATION    = 53.1592
RA_OF_ASC_NODE = 359.2679
ARG_OF_PERICENTER = 80.6451
MEAN_ANOMALY   = 58.7960

EPHEMERIS_TYPE = 0
CLASSIFICATION_TYPE = U
NORAD_CAT_ID   = 66226
ELEMENT_SET_NO = 999
REV_AT_EPOCH   = 567
BSTAR          = -.47955426E-1
MEAN_MOTION_DOT = -.2015099E-1
MEAN_MOTION_DDOT = 0

CCSDS_OMM_VERS = 2.0
CREATION_DATE  = 
ORIGINATOR     = 

OBJECT_NAME    = STARLINK-34882
OBJECT_ID      = 2025-244X
CENTER_NAME    = EARTH
REF_FRAME      = TEME
TIME_SYSTEM    = UTC
MEAN_ELEMENT_THEORY = SGP/SGP4

EPOCH          = 2025-11-24T17:11:01.792608
MEAN_MOTION    = 15.46419949
ECCENTRICITY   = .00083054
INCLINATION    = 53.1606
RA_OF_ASC_NODE = 0.6153
ARG_OF_PERICENTER = 19.2590
MEAN_ANOMALY   = 340.8730

EPHEMERIS_TYPE = 0
CLASSIFICATION_TYPE = U
NORAD_CAT_ID   = 66227
ELEMENT_SET_NO = 999
REV_AT_EPOCH   = 554
BSTAR          = -.40568698E-2
MEAN_MOTION_DOT = -.199646E-2
MEAN_MOTION_DDOT = 0

CCSDS_OMM_VERS = 2.0
CREATION_DATE  = 
ORIGINATOR     = 

OBJECT_NAME    = STARLINK-35731
OBJECT_ID      = 2025-244Y
CENTER_NAME    = EARTH
REF_FRAME      = TEME
TIME_SYSTEM    = UTC
MEAN_ELEMENT_THEORY = SGP/SGP4

EPOCH          = 2025-11-24T07:51:53.475264
MEAN_MOTION    = 15.49339259
ECCENTRICITY   = .00014405
INCLINATION    = 53.1597
RA_OF_ASC_NODE = 2.4560
ARG_OF_PERICENTER = 41.9102
MEAN_ANOMALY   = 318.2017

EPHEMERIS_TYPE = 0
CLASSIFICATION_TYPE = U
NORAD_CAT_ID   = 66228
ELEMENT_SET_NO = 999
REV_AT_EPOCH   = 548
BSTAR          = .15187873E-2
MEAN_MOTION_DOT = .85036E-3
MEAN_MOTION_DDOT = 0

CCSDS_OMM_VERS = 2.0
CREATION_DATE  = 
ORIGINATOR     = 

OBJECT_NAME    = STARLINK-35758
OBJECT_ID      = 2025-244Z
CENTER_NAME    = EARTH
REF_FRAME      = TEME
TIME_SYSTEM    = UTC
MEAN_ELEMENT_THEORY = SGP/SGP4

EPOCH          = 2025-11-24T14:02:57.476544
MEAN_MOTION    = 15.49338232
ECCENTRICITY   = .00042562
INCLINATION    = 53.1596
RA_OF_ASC_NODE = 1.2202
ARG_OF_PERICENTER = 154.3024
MEAN_ANOMALY   = 205.8197

EPHEMERIS_TYPE = 0
CLASSIFICATION_TYPE = U
NORAD_CAT_ID   = 66229
ELEMENT_SET_NO = 999
REV_AT_EPOCH   = 552
BSTAR          = .17498213E-2
MEAN_MOTION_DOT = .98225E-3
MEAN_MOTION_DDOT = 0

CCSDS_OMM_VERS = 2.0
CREATION_DATE  = 
ORIGINATOR     = 

OBJECT_NAME    = STARLINK-35736
OBJECT_ID      = 2025-244AA
CENTER_NAME    = EARTH
REF_FRAME      = TEME
TIME_SYSTEM    = UTC
MEAN_ELEMENT_THEORY = SGP/SGP4

EPOCH          = 2025-11-24T14:02:27.890592
MEAN_MOTION    = 15.49334895
ECCENTRICITY   = .00019506
INCLINATION    = 53.1598
RA_OF_ASC_NODE = 1.2179
ARG_OF_PERICENTER = 136.0257
MEAN_ANOMALY   = 224.0908

EPHEMERIS_TYPE = 0
CLASSIFICATION_TYPE = U
NORAD_CAT_ID   = 66230
ELEMENT_SET_NO = 999
REV_AT_EPOCH   = 552
BSTAR          = .10983142E-2
MEAN_MOTION_DOT = .61173E-3
MEAN_MOTION_DDOT = 0

CCSDS_OMM_VERS = 2.0
CREATION_DATE  = 
ORIGINATOR     = 

OBJECT_NAME    = STARLINK-35735
OBJECT_ID      = 2025-244AB
CENTER_NAME    = EARTH
REF_FRAME      = TEME
TIME_SYSTEM    = UTC
MEAN_ELEMENT_THEORY = SGP/SGP4

EPOCH          = 2025-11-24T14:01:58.366848
MEAN_MOTION    = 15.49333264
ECCENTRICITY   = .0001311
INCLINATION    = 53.1600
RA_OF_ASC_NODE = 1.2150
ARG_OF_PERICENTER = 101.8054
MEAN_ANOMALY   = 258.3102

EPHEMERIS_TYPE = 0
CLASSIFICATION_TYPE = U
NORAD_CAT_ID   = 66231
ELEMENT_SET_NO = 999
REV_AT_EPOCH   = 552
BSTAR          = .11784963E-2
MEAN_MOTION_DOT = .65704E-3
MEAN_MOTION_DDOT = 0

CCSDS_OMM_VERS = 2.0
CREATION_DATE  = 
ORIGINATOR     = 

OBJECT_NAME    = STARLINK-35753
OBJECT_ID      = 2025-244AC
CENTER_NAME    = EARTH
REF_FRAME      = TEME
TIME_SYSTEM    = UTC
MEAN_ELEMENT_THEORY = SGP/SGP4

EPOCH          = 2025-11-24T10:55:41.475360
MEAN_MOTION    = 15.49353515
ECCENTRICITY   = .00012769
INCLINATION    = 53.1605
RA_OF_ASC_NODE = 1.8365
ARG_OF_PERICENTER = 78.5188
MEAN_ANOMALY   = 281.5965

EPHEMERIS_TYPE = 0
CLASSIFICATION_TYPE = U
NORAD_CAT_ID   = 66232
ELEMENT_SET_NO = 999
REV_AT_EPOCH   = 550
BSTAR          = .9851189E-3
MEAN_MOTION_DOT = .54812E-3
MEAN_MOTION_DDOT = 0

CCSDS_OMM_VERS = 2.0
CREATION_DATE  = 
ORIGINATOR     = 

OBJECT_NAME    = STARLINK-35626
OBJECT_ID      = 2025-244AD
CENTER_NAME    = EARTH
REF_FRAME      = TEME
TIME_SYSTEM    = UTC
MEAN_ELEMENT_THEORY = SGP/SGP4

EPOCH          = 2025-11-24T14:00:59.104224
MEAN_MOTION    = 15.49339197
ECCENTRICITY   = .00012586
INCLINATION    = 53.1600
RA_OF_ASC_NODE = 1.2120
ARG_OF_PERICENTER = 85.9736
MEAN_ANOMALY   = 274.1417

EPHEMERIS_TYPE = 0
CLASSIFICATION_TYPE = U
NORAD_CAT_ID   = 66233
ELEMENT_SET_NO = 999
REV_AT_EPOCH   = 552
BSTAR          = .12949842E-2
MEAN_MOTION_DOT = .7232E-3
MEAN_MOTION_DDOT = 0

CCSDS_OMM_VERS = 2.0
CREATION_DATE  = 
ORIGINATOR     = 

OBJECT_NAME    = STARLINK-35537
OBJECT_ID      = 2025-245A
CENTER_NAME    = EARTH
REF_FRAME      = TEME
TIME_SYSTEM    = UTC
MEAN_ELEMENT_THEORY = SGP/SGP4

EPOCH          = 2025-11-25T00:00:04.000320
MEAN_MOTION    = 15.39695242
ECCENTRICITY   = .0001524
INCLINATION    = 53.1597
RA_OF_ASC_NODE = 53.2776
ARG_OF_PERICENTER = 115.2368
MEAN_ANOMALY   = 269.2373

EPHEMERIS_TYPE = 0
CLASSIFICATION_TYPE = U
NORAD_CAT_ID   = 66234
ELEMENT_SET_NO = 999
REV_AT_EPOCH   = 525
BSTAR          = -.53286904E-2
MEAN_MOTION_DOT = -.208346E-2
MEAN_MOTION_DDOT = 0

