STARLINK-35664          
1 66223U 25244T   25329.00004630  .00085007  00000+0  21155-2 0  9995
2 66223  53.1592 359.3530 0001538  73.4926  24.1833 15.39563026  5468
STARLINK-35733          
1 66224U 25244U   25328.58700863  .00076376  00000+0  15083-2 0  9991
2 66224  53.1608   1.2297 0003331 159.5917 200.5225 15.46494543  5526
STARLINK-35734          
1 66225U 25244V   25329.00004630 -.02142272  00000+0 -56411-1 0  9991
2 66225  53.1593 359.3040 0001420  88.9340  32.6979 15.41793767  5351
STARLINK-34466          
1 66226U 25244W   25329.00004630 -.02015099  00000+0 -47955-1 0  9991
2 66226  53.1592 359.2679 0001251  80.6451  58.7960 15.44539580  5670
STARLINK-34882          
1 66227U 25244X   25328.71599297 -.00199646  00000+0 -40569-2 0  9991
2 66227  53.1606   0.6153 0008305  19.2590 340.8730 15.46419949  5544
STARLINK-35731          
1 66228U 25244Y   25328.32770226  .00085036  00000+0  15188-2 0  9996
2 66228  53.1597   2.4560 0001440  41.9102 318.2017 15.49339259  5488
STARLINK-35758          
1 66229U 25244Z   25328.58538746  .00098225  00000+0  17498-2 0  9994
2 66229  53.1596   1.2202 0004256 154.3024 205.8197 15.49338232  5523
STARLINK-35736          
1 66230U 25244AA  25328.58504503  .00061173  00000+0  10983-2 0  9994
2 66230  53.1598   1.2179 0001950 136.0257 224.0908 15.49334895  5527
STARLINK-35735          
1 66231U 25244AB  25328.58470332  .00065704  00000+0  11785-2 0  9992
2 66231  53.1600   1.2150 0001311 101.8054 258.3102 15.49333264  5522
STARLINK-35753          
1 66232U 25244AC  25328.45534115  .00054812  00000+0  98512-3 0  9991
2 66232  53.1605   1.8365 0001276  78.5188 281.5965 15.49353515  5504
STARLINK-35626          
1 66233U 25244AD  25328.58401741  .00072320  00000+0  12950-2 0  9999
2 66233  53.1600   1.2120 0001258  85.9736 274.1417 15.49339197  5526
STARLINK-35537          
1 66234U 25245A   25329.00004630 -.00208346  00000+0 -53287-2 0  9994
2 66234  53.1597  53.2776 0001524 115.2368 269.2373 15.39695242  5251
